STARLINK-2414
1 18095C 21027D   21326.16353828 -.00013600  00000-0 -91099-3 0  3265
2 18095  53.0550  13.0177 0001506  55.8619 101.2794 15.06422409    19
